{
    "links": {
        "self": "http://www.neowsapp.com/rest/v1/neo/3463447?api_key=iIulBulltgU6a56xZRHN4H3l9WmuAYTsLGpBGhQ2"
    },
    "id": "3463447",
    "neo_reference_id": "3463447",
    "name": "(2009 MM8)",
    "designation": "2009 MM8",
    "nasa_jpl_url": "http://ssd.jpl.nasa.gov/sbdb.cgi?sstr=3463447",
    "absolute_magnitude_h": 24.8,
    "estimated_diameter": {
        "kilometers": {
            "estimated_diameter_min": 0.0291443905,
            "estimated_diameter_max": 0.0651688382
        },
        "meters": {
            "estimated_diameter_min": 29.1443904535,
            "estimated_diameter_max": 65.1688382168
        },
        "miles": {
            "estimated_diameter_min": 0.018109479,
            "estimated_diameter_max": 0.0404940262
        },
        "feet": {
            "estimated_diameter_min": 95.6180819754,
            "estimated_diameter_max": 213.8085311752
        }
    },
    "is_potentially_hazardous_asteroid": false,
    "close_approach_data": [
        {
            "close_approach_date": "2009-07-13",
            "close_approach_date_full": "2009-Jul-13 07:13",
            "epoch_date_close_approach": 1247469180000,
            "relative_velocity": {
                "kilometers_per_second": "6.0008719109",
                "kilometers_per_hour": "21603.1388790977",
                "miles_per_hour": "13423.3503774038"
            },
            "miss_distance": {
                "astronomical": "0.0294604252",
                "lunar": "11.4601054028",
                "kilometers": "4407216.859214324",
                "miles": "2738517.5695687112"
            },
            "orbiting_body": "Earth"
        }
    ],
    "orbital_data": {
        "orbit_id": "9",
        "orbit_determination_date": "2017-04-06 09:00:23",
        "first_observation_date": "2009-06-24",
        "last_observation_date": "2009-07-26",
        "data_arc_in_days": 32,
        "observations_used": 26,
        "orbit_uncertainty": "8",
        "minimum_orbit_intersection": ".0295256",
        "jupiter_tisserand_invariant": "3.896",
        "epoch_osculation": "2455016.5",
        "eccentricity": ".4352261379165902",
        "semi_major_axis": "1.840510264440745",
        "inclination": "3.10302638727861",
        "ascending_node_longitude": "94.97998161032531",
        "orbital_period": "912.0230038264032",
        "perihelion_distance": "1.039472090252357",
        "perihelion_argument": "202.7543740576048",
        "aphelion_distance": "2.641548438629132",
        "perihelion_time": "2455031.889676296095",
        "mean_anomaly": "353.9252810034945",
        "mean_motion": ".3947268857140837",
        "equinox": "J2000",
        "orbit_class": {
            "orbit_class_type": "AMO",
            "orbit_class_description": "Near-Earth asteroid orbits similar to that of 1221 Amor",
            "orbit_class_range": "1.017 AU < q (perihelion) < 1.3 AU"
        }
    },
    "is_sentry_object": false
}